OBJECT_NAME,OBJECT_ID,EPOCH,MEAN_MOTION,ECCENTRICITY,INCLINATION,RA_OF_ASC_NODE,ARG_OF_PERICENTER,MEAN_ANOMALY,EPHEMERIS_TYPE,CLASSIFICATION_TYPE,NORAD_CAT_ID,ELEMENT_SET_NO,REV_AT_EPOCH,BSTAR,MEAN_MOTION_DOT,MEAN_MOTION_DDOT
DMSP 5D-3 F16 (USA 172),2003-048A,2026-06-18T15:47:45.225312,14.14483183,.0007812,98.9890,193.4963,136.4373,325.8706,0,U,28054,999,16969,.46015E-5,-.37E-6,0
METEOSAT-9 (MSG-2),2005-049B,2026-06-18T16:29:51.917280,1.00272911,.0001706,9.3655,54.1547,345.0869,160.7903,0,U,28912,999,701,0,.114E-5,0
DMSP 5D-3 F17 (USA 191),2006-050A,2026-06-18T15:42:40.336992,14.14993111,.0011124,98.7378,176.1948,55.5767,304.6456,0,U,29522,999,1263,.14922E-4,-.14E-6,0
FENGYUN 3A,2008-026A,2026-06-18T14:21:04.493952,14.19571403,.0009645,98.6883,110.4048,119.9737,240.2398,0,U,32958,999,93560,.49021E-4,.6E-6,0
GOES 14,2009-033A,2026-06-18T17:09:00.290016,1.00110439,.0001831,1.6949,83.0245,12.4134,209.7079,0,U,35491,999,660,0,-.304E-5,0
DMSP 5D-3 F18 (USA 210),2009-057A,2026-06-18T16:43:25.775040,14.14897572,.0009924,98.9038,150.4626,244.7269,115.2876,0,U,35951,999,85980,.13671E-3,.219E-5,0
EWS-G2 (GOES 15),2010-008A,2026-06-18T14:55:59.920320,1.00266285,.0004826,1.2824,82.8216,42.0801,69.6456,0,U,36411,999,5965,0,.13E-6,0
COMS 1,2010-032A,2026-06-18T03:32:21.653376,0.99162666,.00115422,4.8083,75.3434,11.9093,301.8413,0,U,36744,999,5109,0,.7E-6,0
FENGYUN 3B,2010-059A,2026-06-18T17:27:53.439840,14.14840791,.0021974,98.9612,215.7492,179.6110,290.1335,0,U,37214,999,80764,-.29551E-4,-.102E-5,0
SUOMI NPP,2011-061A,2026-06-18T16:18:52.870176,14.19517654,.0001453,98.7953,110.5456,3.1761,356.9424,0,U,37849,999,75865,.47195E-4,.55E-6,0
METEOSAT-10 (MSG-3),2012-035B,2026-06-18T07:47:28.502016,1.00266031,.0001396,4.6751,61.0179,0.2073,322.5258,0,U,38552,999,5086,0,-.14E-6,0
METOP-B,2012-049A,2026-06-18T16:01:41.584224,14.21433134,.0002144,98.6504,221.1376,15.8743,344.2501,0,U,38771,999,71347,.59817E-4,.87E-6,0
INSAT-3D,2013-038B,2026-06-18T16:32:08.570112,1.00268562,.0000583,1.9309,82.5221,320.9250,241.0058,0,U,39216,999,4709,0,-.346E-5,0
FENGYUN 3C,2013-052A,2026-06-18T17:45:34.121664,14.15755395,.0015166,98.4987,143.5435,23.3583,336.8278,0,U,39260,999,65878,.60269E-4,.77E-6,0
METEOR-M 2,2014-037A,2026-06-18T18:20:59.153856,14.21462063,.0006674,98.5116,145.4473,40.5439,319.6235,0,U,40069,999,61954,.80662E-4,.134E-5,0
HIMAWARI-8,2014-060A,2026-06-18T15:18:05.978016,1.00271223,.0001072,0.0128,36.1636,55.6348,185.2663,0,U,40267,999,4277,0,-.282E-5,0
FENGYUN 2G,2014-090A,2026-06-18T15:06:28.630656,1.00271470,.0003936,5.6433,72.7978,158.9318,1.4413,0,U,40367,999,4201,0,-.311E-5,0
METEOSAT-11 (MSG-4),2015-034A,2026-06-18T04:24:45.376128,1.00264280,.00025,3.2036,71.1007,345.8568,285.3054,0,U,40732,999,722,0,.56E-6,0
ELEKTRO-L 2,2015-074A,2026-06-18T00:52:34.633344,1.00270556,.00009025,6.6975,70.5132,256.1704,298.2263,0,U,41105,999,3851,0,-.126E-5,0
SENTINEL-3A,2016-011A,2026-06-18T16:32:33.752256,14.26732755,.0001411,98.6250,237.0517,101.1895,258.9444,0,U,41335,999,53827,.56553E-4,.93E-6,0
INSAT-3DR,2016-054A,2026-06-18T14:59:06.838080,1.00271058,.001053,0.1104,86.2264,187.5669,291.8132,0,U,41752,999,3583,0,-.83E-6,0
HIMAWARI-9,2016-064A,2026-06-18T15:18:05.978016,1.00270342,.0000984,0.0152,295.1115,195.0581,146.9866,0,U,41836,999,3522,0,-.281E-5,0
GOES 16,2016-071A,2026-06-18T15:50:47.416128,1.00271159,.000025,0.3460,85.5077,324.0383,350.3520,0,U,41866,999,3511,0,-.97E-6,0
FENGYUN 4A,2016-077A,2026-06-18T16:07:45.624576,1.00267698,.0008695,2.3269,80.2603,153.4237,38.9022,0,U,41882,999,3494,0,-.364E-5,0
CYGFM05,2016-078A,2026-06-18T12:37:40.079712,15.56722595,.0007102,34.9563,251.7231,164.6539,195.4402,0,U,41884,999,52896,.25573E-3,.18897E-3,0
CYGFM04,2016-078B,2026-06-18T13:21:23.836032,15.61577331,.0006823,34.9309,219.1431,207.5066,152.5299,0,U,41885,999,52921,.2571E-3,.22879E-3,0
CYGFM02,2016-078C,2026-06-18T13:18:36.113760,15.64576545,.0007894,34.9390,213.6514,208.8142,151.2149,0,U,41886,999,52938,.26865E-3,.26934E-3,0
CYGFM01,2016-078D,2026-06-18T13:52:52.845024,15.57403870,.0006857,34.9392,252.4239,158.7046,201.3964,0,U,41887,999,52892,.26213E-3,.19875E-3,0
CYGFM08,2016-078E,2026-06-18T12:51:05.719104,15.60079570,.0008477,34.9419,232.2513,189.9970,170.0587,0,U,41888,999,52918,.25781E-3,.2166E-3,0
CYGFM07,2016-078G,2026-06-18T13:24:16.643808,15.60178394,.0007269,34.9432,220.4381,206.5978,153.4375,0,U,41890,999,52921,.25688E-3,.21654E-3,0
CYGFM03,2016-078H,2026-06-18T12:42:32.186016,15.60171185,.000671,34.9387,222.5679,194.5255,165.5278,0,U,41891,999,52918,.25707E-3,.2166E-3,0
